NORAD_CAT_ID,OBJECT_NAME,OBJECT_TYPE,EPOCH,MEAN_MOTION,ECCENTRICITY,INCLINATION,RA_OF_ASC_NODE,ARG_OF_PERICENTER,MEAN_ANOMALY,BSTAR,MEAN_MOTION_DOT,MEAN_MOTION_DDOT,TLE_LINE0,TLE_LINE1,TLE_LINE2,SEMIMAJOR_AXIS,PERIOD,APOGEE,PERIGEE,DECAYED
52377.0,STARLINK-3805,PAYLOAD,2024-02-19 03:04:40,15.08858472,0.0001386,53.2165,314.2549,97.165,262.9499,0.00014508,2.023e-05,0.0,0 STARLINK-3805,1 52377U 22045AY  24050.12824982  .00002023  00000-0  14508-3 0  9992,2 52377  53.2165 314.2549 0001386  97.1650 262.9499 15.08858472102756,6917.824,95.436,540.648,538.73,0.0
52377.0,STARLINK-3805,PAYLOAD,2024-02-19 11:01:38,15.08833079,0.000167,53.2183,312.7687,76.5963,283.5215,3.212e-05,2.23e-06,0.0,0 STARLINK-3805,1 52377U 22045AY  24050.45946950  .00000223  00000-0  32120-4 0  9999,2 52377  53.2183 312.7687 0001670  76.5963 283.5215 15.08833079102803,6917.902,95.438,540.922,538.611,0.0
52377.0,STARLINK-3805,PAYLOAD,2024-02-19 23:44:43,15.08825094,0.0001508,53.2157,310.3912,77.9594,282.1568,0.00013974,1.936e-05,0.0,0 STARLINK-3805,1 52377U 22045AY  24050.98939752  .00001936  00000-0  13974-3 0  9996,2 52377  53.2157 310.3912 0001508  77.9594 282.1568 15.08825094102886,6917.926,95.438,540.834,538.748,0.0
52377.0,STARLINK-3805,PAYLOAD,2024-02-20 22:00:07,15.08845875,0.0001734,53.2179,306.2278,82.1718,277.9471,0.00011124,1.483e-05,0.0,0 STARLINK-3805,1 52377U 22045AY  24051.91674928  .00001483  00000-0  11124-3 0  9993,2 52377  53.2179 306.2278 0001734  82.1718 277.9471 15.08845875103027,6917.862,95.437,540.927,538.528,0.0
52377.0,STARLINK-3805,PAYLOAD,2024-02-21 02:46:15,15.08855888,0.0001532,53.2176,305.3332,85.5698,274.5469,0.00019733,2.855e-05,0.0,0 STARLINK-3805,1 52377U 22045AY  24052.11546293  .00002855  00000-0  19733-3 0  9997,2 52377  53.2176 305.3332 0001532  85.5698 274.5469 15.08855888103053,6917.832,95.437,540.757,538.637,0.0
52377.0,STARLINK-3805,PAYLOAD,2024-02-21 20:15:31,15.08837147,0.0001417,53.2176,302.062,84.2378,275.8776,0.00016557,2.348e-05,0.0,0 STARLINK-3805,1 52377U 22045AY  24052.84411325  .00002348  00000-0  16557-3 0  9992,2 52377  53.2176 302.0620 0001417  84.2378 275.8776 15.08837147103165,6917.889,95.438,540.734,538.774,0.0
52377.0,STARLINK-3805,PAYLOAD,2024-02-21 21:50:54,15.08839749,0.0001456,53.2179,301.7646,76.034,284.0814,0.00020576,2.988e-05,0.0,0 STARLINK-3805,1 52377U 22045AY  24052.91035281  .00002988  00000-0  20576-3 0  9999,2 52377  53.2179 301.7646 0001456  76.0340 284.0814 15.08839749103179,6917.881,95.438,540.753,538.739,0.0
52377.0,STARLINK-3805,PAYLOAD,2024-02-22 02:37:03,15.08847967,0.0001501,53.2172,300.8724,81.0762,279.04,0.00021995,3.215e-05,0.0,0 STARLINK-3805,1 52377U 22045AY  24053.10906853  .00003215  00000-0  21995-3 0  9993,2 52377  53.2172 300.8724 0001501  81.0762 279.0400 15.08847967103204,6917.856,95.437,540.759,538.683,0.0
52377.0,STARLINK-3805,PAYLOAD,2024-02-22 08:58:36,15.08848099,0.000152,53.217,299.6827,77.8107,282.3055,0.00019697,2.849e-05,0.0,0 STARLINK-3805,1 52377U 22045AY  24053.37402812  .00002849  00000-0  19697-3 0  9996,2 52377  53.2170 299.6827 0001520  77.8107 282.3055 15.08848099103242,6917.856,95.437,540.772,538.669,0.0
52377.0,STARLINK-3805,PAYLOAD,2024-02-22 20:06:18,15.08840341,0.0001527,53.2166,297.6023,89.7955,270.3212,-2.9321e-05,-7.55e-06,0.0,0 STARLINK-3805,1 52377U 22045AY  24053.83770924 -.00000755  00000-0 -29321-4 0  9991,2 52377  53.2166 297.6023 0001527  89.7955 270.3212 15.08840341103315,6917.879,95.438,540.801,538.688,0.0
52377.0,STARLINK-3805,PAYLOAD,2024-02-22 21:41:41,15.08840521,0.0001517,53.2167,297.3048,88.9948,271.1218,-5.5742e-05,-1.175e-05,0.0,0 STARLINK-3805,1 52377U 22045AY  24053.90394925 -.00001175  00000-0 -55742-4 0  9995,2 52377  53.2167 297.3048 0001517  88.9948 271.1218 15.08840521103328,6917.879,95.438,540.793,538.694,0.0
52377.0,STARLINK-3805,PAYLOAD,2024-02-23 21:32:28,15.08839368,0.0001534,53.2171,292.8442,93.4473,266.6695,4.2697e-05,3.92e-06,0.0,0 STARLINK-3805,1 52377U 22045AY  24054.89755194  .00000392  00000-0  42697-4 0  9996,2 52377  53.2171 292.8442 0001534  93.4473 266.6695 15.08839368103475,6917.882,95.438,540.809,538.686,0.0
52377.0,STARLINK-3805,PAYLOAD,2024-02-24 02:18:37,15.08841276,0.00015,53.217,291.9519,89.7599,270.3565,5.8669e-05,6.46e-06,0.0,0 STARLINK-3805,1 52377U 22045AY  24055.09627098  .00000646  00000-0  58669-4 0  9998,2 52377  53.2170 291.9519 0001500  89.7599 270.3565 15.08841276103502,6917.876,95.437,540.779,538.704,0.0
52377.0,STARLINK-3805,PAYLOAD,2024-02-24 08:40:10,15.08840278,0.0001565,53.2173,290.7623,84.8627,275.2544,5.0551e-05,5.17e-06,0.0,0 STARLINK-3805,1 52377U 22045AY  24055.36123245  .00000517  00000-0  50551-4 0  9992,2 52377  53.2173 290.7623 0001565  84.8627 275.2544 15.08840278103543,6917.88,95.438,540.827,538.662,0.0
52377.0,STARLINK-3805,PAYLOAD,2024-02-25 08:30:57,15.08844335,6.23e-05,53.2169,286.304,82.9866,277.1197,0.00015051,2.109e-05,0.0,0 STARLINK-3805,1 52377U 22045AY  24056.35482843  .00002109  00000-0  15051-3 0  9998,2 52377  53.2169 286.3040 0000623  82.9866 277.1197 15.08844335103699,6917.867,95.437,540.163,539.301,0.0
52377.0,STARLINK-3805,PAYLOAD,2024-02-25 14:52:29,15.08846082,0.0001251,53.2157,285.1141,95.4907,264.6228,0.00010991,1.462e-05,0.0,0 STARLINK-3805,1 52377U 22045AY  24056.61979087  .00001462  00000-0  10991-3 0  9997,2 52377  53.2157 285.1141 0001251  95.4907 264.6228 15.08846082103730,6917.862,95.437,540.592,538.861,0.0
52377.0,STARLINK-3805,PAYLOAD,2024-02-25 22:49:25,15.08849258,0.0001355,53.2146,283.6279,87.1155,272.9992,0.00016988,2.417e-05,0.0,0 STARLINK-3805,1 52377U 22045AY  24056.95098749  .00002417  00000-0  16988-3 0  9994,2 52377  53.2146 283.6279 0001355  87.1155 272.9992 15.08849258103784,6917.852,95.437,540.654,538.78,0.0
52377.0,STARLINK-3805,PAYLOAD,2024-02-26 14:43:17,15.08839309,0.0001513,53.2157,280.654,86.6544,273.4621,6.9559e-05,8.19e-06,0.0,0 STARLINK-3805,1 52377U 22045AY  24057.61339363  .00000819  00000-0  69559-4 0  9995,2 52377  53.2157 280.6540 0001513  86.6544 273.4621 15.08839309103888,6917.883,95.438,540.794,538.701,0.0
52377.0,STARLINK-3805,PAYLOAD,2024-02-26 19:29:26,15.0883817,0.00015,53.2167,279.7631,84.9627,275.1536,1.2668e-05,-8.6e-07,0.0,0 STARLINK-3805,1 52377U 22045AY  24057.81211466 -.00000086  00000-0  12668-4 0  9996,2 52377  53.2167 279.7631 0001500  84.9627 275.1536 15.08838170103911,6917.886,95.438,540.789,538.713,0.0
52377.0,STARLINK-3805,PAYLOAD,2024-02-26 21:04:49,15.08837195,0.0001526,53.2165,279.4653,84.8471,275.2695,4.9506e-05,5e-06,0.0,0 STARLINK-3805,1 52377U 22045AY  24057.87835530  .00000500  00000-0  49506-4 0  9997,2 52377  53.2165 279.4653 0001526  84.8471 275.2695 15.08837195103928,6917.889,95.438,540.81,538.698,0.0
52377.0,STARLINK-3805,PAYLOAD,2024-02-27 08:12:31,15.0883706,0.0001584,53.2162,277.382,87.5876,272.5297,4.8495e-05,4.84e-06,0.0,0 STARLINK-3805,1 52377U 22045AY  24058.34203654  .00000484  00000-0  48495-4 0  9993,2 52377  53.2162 277.3820 0001584  87.5876 272.5297 15.08837060103997,6917.889,95.438,540.85,538.659,0.0
52377.0,STARLINK-3805,PAYLOAD,2024-02-27 20:55:36,15.08841896,0.000148,53.2162,275.0016,94.6578,265.4584,7.4268e-06,-1.7e-06,0.0,0 STARLINK-3805,1 52377U 22045AY  24058.87195447 -.00000170  00000-0  74268-5 0  9992,2 52377  53.2162 275.0016 0001480  94.6578 265.4584 15.08841896104074,6917.875,95.437,540.763,538.716,0.0
52377.0,STARLINK-3805,PAYLOAD,2024-02-28 00:06:23,15.08842728,0.0001518,53.2159,274.4067,94.8517,265.2649,1.1811e-05,-1e-06,0.0,0 STARLINK-3805,1 52377U 22045AY  24059.00443415 -.00000100  00000-0  11811-4 0  9996,2 52377  53.2159 274.4067 0001518  94.8517 265.2649 15.08842728104093,6917.872,95.437,540.787,538.687,0.0
52377.0,STARLINK-3805,PAYLOAD,2024-02-28 20:46:24,15.08838121,0.0001402,53.2164,270.5411,93.1538,266.9614,9.407e-05,1.209e-05,0.0,0 STARLINK-3805,1 52377U 22045AY  24059.86555723  .00001209  00000-0  94070-4 0  9994,2 52377  53.2164 270.5411 0001402  93.1538 266.9614 15.08838121104223,6917.886,95.438,540.721,538.781,0.0
52377.0,STARLINK-3805,PAYLOAD,2024-02-29 14:15:38,15.08837611,0.0001412,53.2168,267.2704,93.0206,267.0948,8.7342e-05,1.102e-05,0.0,0 STARLINK-3805,1 52377U 22045AY  24060.59419948  .00001102  00000-0  87342-4 0  9990,2 52377  53.2168 267.2704 0001412  93.0206 267.0948 15.08837611104334,6917.888,95.438,540.729,538.776,0.0
52377.0,STARLINK-3805,PAYLOAD,2024-02-29 20:37:11,15.08841671,0.0001388,53.2169,266.0814,92.2941,267.821,0.00011551,1.551e-05,0.0,0 STARLINK-3805,1 52377U 22045AY  24060.85915656  .00001551  00000-0  11551-3 0  9992,2 52377  53.2169 266.0814 0001388  92.2941 267.8210 15.08841671104378,6917.875,95.437,540.7,538.78,0.0
52377.0,STARLINK-3805,PAYLOAD,2024-03-01 14:06:26,15.08838007,0.0001404,53.2173,262.8123,95.0121,265.1032,6.7467e-05,7.86e-06,0.0,0 STARLINK-3805,1 52377U 22045AY  24061.58780105  .00000786  00000-0  67467-4 0  9999,2 52377  53.2173 262.8123 0001404  95.0121 265.1032 15.08838007104484,6917.886,95.438,540.723,538.78,0.0
52377.0,STARLINK-3805,PAYLOAD,2024-03-01 18:52:35,15.08840118,0.0001418,53.2173,261.9203,95.1087,265.0067,7.9051e-05,9.7e-06,0.0,0 STARLINK-3805,1 52377U 22045AY  24061.78651939  .00000970  00000-0  79051-4 0  9990,2 52377  53.2173 261.9203 0001418  95.1087 265.0067 15.08840118104517,6917.88,95.438,540.726,538.764,0.0
52377.0,STARLINK-3805,PAYLOAD,2024-03-02 20:18:45,15.08845079,0.0001425,53.2173,257.1626,96.264,263.8514,9.0227e-05,1.148e-05,0.0,0 STARLINK-3805,1 52377U 22045AY  24062.84635606  .00001148  00000-0  90227-4 0  9997,2 52377  53.2173 257.1626 0001425  96.2640 263.8514 15.08845079104679,6917.865,95.437,540.716,538.744,0.0
52377.0,STARLINK-3805,PAYLOAD,2024-03-03 05:51:03,15.08844891,0.0001438,53.2175,255.3775,88.4774,271.6383,8.2987e-05,1.033e-05,0.0,0 STARLINK-3805,1 52377U 22045AY  24063.24379616  .00001033  00000-0  82987-4 0  9995,2 52377  53.2175 255.3775 0001438  88.4774 271.6383 15.08844891104730,6917.865,95.437,540.725,538.736,0.0
